#dP2023  8 27  0  0  0.00000000      96 __u+U ITR00 FIT  IAC
## 2277      0.00000000   900.00000000 60183 0.0000000000000
+  119   C06C07C08C09C10C11C12C13C14C16C19C20C21C22C23C24C25
+        C26C27C28C29C30C32C33C34C35C36C37C38C39C40C41C42C43
+        C44C45C46E02E03E04E05E07E08E09E10E11E12E13E14E15E18
+        E19E21E24E25E26E27E30E31E33E34E36G01G02G03G04G05G06
+        G07G08G09G10G11G12G13G14G15G16G17G18G19G20G21G22G23
+        G24G25G26G27G28G29G30G31G32J02J03J04R01R02R03R04R05
+        R07R08R09R11R12R13R14R15R16R17R18R19R20R21R22R24R25
++         9  6  8  8  6  8  7  8  6  8  8  6  6  8  6  8  6
++         7  7  7  6  6  6  6  5  7  6  7  9  9  7  8  6  5
++         7  8  6  6  5  6  5  5  5  6  5  6  6  6  6  5  5
++         6  6  4  5  4  5  6  7  6  5  6  5  5  6  6  6  4
++         5  6  5  6  5  7  5  5  7  5  6  6  4  5  5  5  6
++         5  6  5  5  6  5  4  5  8  7  8  7  7  5  6  6  7
++         8  5  5  6  5  6  5  8  7  6  7  8  7  7  6  6  6
%c M  cc GPS ccc cccc cccc cccc cccc ccccc ccccc ccccc ccccc
%c cc cc ccc ccc cccc cccc cccc cccc ccccc ccccc ccccc ccccc
%f  0.0000000  0.000000000  0.00000000000  0.000000000000000
%f  0.0000000  0.000000000  0.00000000000  0.000000000000000
%i    0    0    0    0      0      0      0      0         0
%i    0    0    0    0      0      0      0      0         0
/* INFORMATION & ANALYSIS CENTER (IAC)      ULTRA-RAPID DATA
/* S/V CLOCKS ARE ALIGNED TO GNSS TIME                      
/* G:C1WC2W R:C1PC2P E:C1XC5X C:C2IC6I J:C1CC2S             
/* PCV:IGS20_2274 OL/AL:FES2004  NONE     YN ORB:CoN CLK:CoN
*  2023 08 27  7 15  0.00000000
PC06  -6988.636125  40157.191870  11379.320068    937.478347
PC07  -7821.180186  26280.137474 -31930.381263      6.571068
PC08 -20251.414498  28964.827197  22798.656862    372.531995
PC09  -3031.689414  42262.930045   3400.213048    241.775453
PC10     77.953184  28155.181757 -30954.321371   -158.603636
PC11  16270.658017   3413.274226  22474.539822    800.594320
PC12  13653.450989  21670.528315  11092.853753    906.132224
PC13 -13009.422367  29562.919906  27071.801770    341.465857
PC14  27213.838948   2480.761171  -5502.344388    298.873521
PC16  -9030.101836  38646.343552  14926.463962    -53.186900
PC19 -23814.270031   4168.590514  13973.150752   -969.471707
PC20 -26741.385341  -7750.347027  -2119.358677    330.544338
PC21  13631.522727  16018.536322  18333.825534   -957.085271
PC22  -7045.175937  14320.089771  22883.958939   -333.615362
PC23  14590.459904 -22776.394925   6883.919692   -891.243553
PC24  17162.651212   4473.897607 -21555.293345    327.876083
PC25  22030.803975 -14161.601583  -9671.851229    198.184314
PC26   3158.452088  18627.822463 -20538.081284   -169.056293
PC27  -9753.579734 -25967.781187  -3050.572052    190.392828
PC28   2073.077449 -24735.518797  12764.892914    142.572505
PC29 -14020.003146   8161.146070 -22711.789367    166.392853
PC30 -17290.936087 -13167.263076 -17503.857098     -4.043058
PC32 -13679.699424 -15933.626327 -18376.733260   -530.451333
PC33  23832.634396  -4263.307407 -13868.069619   -948.319422
PC34  17446.681732  11790.555436  18306.590360    246.157468
PC35  -1348.112363  24729.426019 -12903.335408    559.255311
PC36 -22422.457046  12971.981743  10395.096753   -255.890175
PC37  -1854.716864 -19241.664697  20152.038613   -814.879319
PC38 -25364.162542  30059.711094  14965.473235    100.842061
PC39 -10371.594205  35636.603667  20273.586122     -4.509547
PC40 -12175.042650  19823.786845 -35144.638948    -34.339050
PC41   7774.490807 -14121.476331 -22732.887867   -883.960754
PC42  26291.542422   8604.490095   3602.644816   -565.142040
PC43  14513.787432  -7208.312428  22707.445416     37.074515
PC44  10608.829252  25670.663660   2804.962547    212.747057
PC45 -14264.761481  22800.711398  -7391.765017    -18.714380
PC46 -17822.038610  -3209.884649  21225.760740    -79.651172
PE02  26812.878585 -10999.823940   6059.925325     58.212922
PE03  16631.009212  -6631.186478 -23575.072649    -49.975564
PE04    325.225858  21102.998474  20757.064131   -198.542360
PE05  24006.366146  11814.133928 -12658.204340     12.777586
PE07 -17089.143831 -23421.630648  -5989.385107    -70.382464
PE08    -28.765325 -20810.273113 -21057.412871   -136.740953
PE09  17028.726868  23404.080385   6163.018572   -134.924770
PE10  -1444.034178  28026.706451   9378.713941   -559.185525
PE11   5782.013435  22735.462027  18037.700725   2810.561455
PE12  -7864.748547  28540.327840    115.283094   -673.920001
PE13  -5299.398239 -23217.162597 -17583.771442    -19.515921
PE14  -5786.057402  19383.857690 -20107.892181    322.999190
PE15   8060.485371 -28482.796817    281.863753    -48.376216
PE18 -10625.890955 -25614.544903   9380.541976    460.836397
PE19 -18229.681015   4064.848580  22967.670069  -1761.800650
PE21 -27181.792429  -1383.140096  11644.112757   -549.067374
PE24  11162.023906  14013.189148 -23572.687863   -288.311771
PE25  27038.067627   1620.767326 -11927.816019     -0.888227
PE26 -15745.175812  -3694.632155 -24791.984096    204.738921
PE27 -11817.312917 -13662.532221  23456.828281   -134.802800
PE30  10852.777370 -17729.212269  21074.764604   -451.047866
PE31 -10327.611496  17745.767105 -21307.271678     -3.641067
PE33 -16640.420048  16400.044746 -18168.355195     -1.131139
PE34  16481.052271 -17061.635811  17705.880951    -63.764525
PE36  15367.269498   4441.335927  24902.254917   -107.134639
PG01  13969.184385 -19097.688854  11368.658790    167.193117
PG02  15268.318524 -13198.185806  17679.404085   -560.924406
PG03  20340.327878 -12664.956701 -11481.120296   -166.965266
PG04   9834.046406 -11670.412877 -21720.955622    137.956973
PG05 -25951.959660   4629.903046  -3854.750841   -140.380760
PG06  -7626.974104 -17028.998889 -18804.167877    560.318851
PG07   4800.889564 -25619.376356   3963.639081     84.232956
PG08  17870.650799  -1635.507766  19633.009557   -139.209086
PG09    673.512655 -18504.615025 -19102.882172    -75.954091
PG10  10130.239212  12384.934255  21437.052642    -50.933539
PG11 -14864.359213  -3138.098351 -21771.157512   -339.825777
PG12 -23368.966877   9635.624869  -8297.461946   -417.719166
PG13 -19357.369125  -8196.218366  16171.790510    565.170425
PG14  -6240.874232 -14447.841179  21431.044315    166.561169
PG15 -17194.915105   4585.726583  19312.506045     71.671416
PG16  25645.530978   1811.948531  -7852.184818   -462.743980
PG17 -12205.344511 -22494.290390   7312.776013    723.217619
PG18  -4001.420050  25497.582231   5864.247143   -396.770180
PG19 -16974.785572 -20621.102056  -1578.381964    363.228991
PG20 -22428.746083  -1342.503105 -13976.603325    415.059008
PG21  15701.264257  -9913.996267  19159.331306    150.039478
PG22 -13432.731653 -12054.264734  19856.805089    133.696719
PG23  -4081.488364  15779.516840  20939.376563     60.280554
PG24 -14575.445494  15697.571017  15055.213729   -301.947919
PG25 -11673.742620  16024.965669 -17860.282968    464.465413
PG26  19765.756013   6809.382579 -16699.325569    231.264235
PG27  21340.835644  10305.119892  12147.348535    -29.186923
PG28   7569.492904  18682.719198 -17317.448533     -2.295319
PG29  -2182.104980  18122.278027 -19304.890615   -608.483438
PG30  -2403.146288 -23287.818714  12414.976548   -493.059021
PG31  13258.286104   8517.794674 -21516.911256   -222.479443
PG32  16479.279845  20709.918813   3466.249868   -547.784850
PJ02 -35279.534843  16714.721804 -11290.432669     -3.112253
PJ03 -21036.569949  29490.656351 -16903.665545     -1.660492
PJ04 -26406.766183  27973.347124  23084.898244     70.496606
PR01  -8339.810794 -13637.941972 -19885.194250     64.331473
PR02 -21597.391392 -12412.883599  -5284.925781    -22.494224
PR03 -22230.126572  -3590.290366  11965.207434     84.065996
PR04 -10554.898676   6614.289774  22281.216151    200.344269
PR05   6755.675469  13520.872163  20562.216681    117.994484
PR07  21979.082475   3207.203634 -12555.225038     63.311416
PR08  10427.019942  -6833.497346 -22205.864145    -72.308615
PR09  11799.245451   4685.215224 -22088.928591    138.929099
PR11  18827.736502 -16708.103567   4081.912202   -144.346462
PR12   4773.974037 -15410.897976  19792.762381     30.610662
PR13  -9961.727375  -6109.838976  22665.633428    -38.586334
PR14 -20920.036880   8604.931736  11827.793037     25.139251
PR15 -18370.045462  16871.080491  -5340.052927     86.681774
PR16  -5071.470672  15463.145565 -19640.257228     18.102609
PR17 -10500.859764   1188.571521 -23209.465627     12.354533
PR18  -6061.681643  17871.883468 -17170.137828     98.828060
PR19    -34.485374  25218.016809  -3794.236947   -245.000747
PR20   8297.727773  18016.067876  16063.464585    -99.034345
PR21  10289.853956  -2376.951485  23218.010363    -33.452655
PR22   6585.584840 -18410.355139  16402.954166    119.965187
PR24  -9433.360882 -17176.889708 -16329.075939    -22.037862
PR25  10857.161941   -769.812392  23072.746515     40.646367
EOF
